IRIDIUM 144             
1 43249U 18030A   23338.89074024  .00000525  00000+0  18052-3 0  9997
2 43249  86.3946 317.1267 0002264  87.6301 272.5154 14.34223312297511
IRIDIUM 149             
1 43250U 18030B   23338.47846605  .00000598  00000+0  20638-3 0  9998
2 43250  86.3943 317.2764 0002414  84.3356 275.8115 14.34214630297475
IRIDIUM 157             
1 43251U 18030C   23338.49749783  .00000543  00000+0  18670-3 0  9993
2 43251  86.3946 317.3011 0001988  94.3326 265.8097 14.34219045297459
IRIDIUM 140             
1 43252U 18030D   23338.93512287  .00000450  00000+0  15366-3 0  9996
2 43252  86.3947 317.1329 0002627  89.1825 270.9671 14.34217321297571
IRIDIUM 145             
1 43253U 18030E   23338.43406494  .00000520  00000+0  17845-3 0  9996
2 43253  86.3961 317.3135 0002951  87.0604 273.0929 14.34214362297434
IRIDIUM 146             
1 43254U 18030F   23338.48480616  .00000174  00000+0  55075-4 0  9993
2 43254  86.3946 317.3105 0002334  83.1735 276.9727 14.34216676297452
IRIDIUM 148             
1 43255U 18030G   23338.38333883 -.00000136  00000+0 -55681-4 0  9999
2 43255  86.3948 317.3825 0002128  79.3666 280.7770 14.34219085297475
IRIDIUM 142             
1 43256U 18030H   23338.90976154  .00000320  00000+0  10731-3 0  9991
2 43256  86.3934 317.0852 0002121  83.5873 276.5565 14.34215332297519
